2019-03-18 00:17:28.748 -03:00 [INF] Registry event has been dispatched: {"UserId":"98f50698-8c84-4224-be48-0052862be631","Name":"Alice Smith","Email":"alice@asp.net","Phone":"1234-5678","Address":"Rua Vergueiro, 456","AdditionalAddress":"8 andar sala 801","District":"Vila Mariana","City":"São Paulo","State":"SP","ZipCode":"69118","Id":"c0cef861-de09-47c8-804f-3eef8a70a284","CreationDate":"2019-03-18T03:17:28.5134397Z"}
2019-03-18 00:17:28.787 -03:00 [INF] Registry event has been dispatched: {"UserId":"98f50698-8c84-4224-be48-0052862be631","Name":"Alice Smith","Email":"alice@asp.net","Phone":"1234-5678","Address":"Rua Vergueiro, 456","AdditionalAddress":"8 andar sala 801","District":"Vila Mariana","City":"São Paulo","State":"SP","ZipCode":"69118","Id":"c0cef861-de09-47c8-804f-3eef8a70a284","CreationDate":"2019-03-18T03:17:28.5134397Z"}
2019-03-18 00:18:30.544 -03:00 [INF] Registry event has been dispatched: {"UserId":"98f50698-8c84-4224-be48-0052862be631","Name":"Alice Smith","Email":"alice@asp.net","Phone":"1234-5678","Address":"Rua Vergueiro, 456","AdditionalAddress":"8 andar sala 801","District":"Vila Mariana","City":"São Paulo","State":"SP","ZipCode":"69118","Id":"433aca18-023e-48b0-aa49-8ef7ac20daf2","CreationDate":"2019-03-18T03:18:30.5211994Z"}
2019-03-18 00:18:30.544 -03:00 [INF] Registry event has been dispatched: {"UserId":"98f50698-8c84-4224-be48-0052862be631","Name":"Alice Smith","Email":"alice@asp.net","Phone":"1234-5678","Address":"Rua Vergueiro, 456","AdditionalAddress":"8 andar sala 801","District":"Vila Mariana","City":"São Paulo","State":"SP","ZipCode":"69118","Id":"433aca18-023e-48b0-aa49-8ef7ac20daf2","CreationDate":"2019-03-18T03:18:30.5211994Z"}
2019-03-18 00:23:08.333 -03:00 [INF] Registry event has been dispatched: {"UserId":"98f50698-8c84-4224-be48-0052862be631","Name":"Alice Smith","Email":"alice@asp.net","Phone":"1234-5678","Address":"Rua Vergueiro, 456","AdditionalAddress":"8 andar sala 801","District":"Vila Mariana","City":"São Paulo","State":"SP","ZipCode":"69118","Id":"e7727004-2665-4091-bcab-b68e4cb660e5","CreationDate":"2019-03-18T03:23:08.2644341Z"}
2019-03-18 00:23:08.333 -03:00 [INF] Registry event has been dispatched: {"UserId":"98f50698-8c84-4224-be48-0052862be631","Name":"Alice Smith","Email":"alice@asp.net","Phone":"1234-5678","Address":"Rua Vergueiro, 456","AdditionalAddress":"8 andar sala 801","District":"Vila Mariana","City":"São Paulo","State":"SP","ZipCode":"69118","Id":"e7727004-2665-4091-bcab-b68e4cb660e5","CreationDate":"2019-03-18T03:23:08.2644341Z"}
2019-03-18 00:23:09.016 -03:00 [ERR] The 'InvokeCoreAsync' method cannot be called if the connection is not active
System.InvalidOperationException: The 'InvokeCoreAsync' method cannot be called if the connection is not active
   at Microsoft.AspNetCore.SignalR.Client.HubConnection.CheckConnectionActive(String methodName)
   at Microsoft.AspNetCore.SignalR.Client.HubConnection.InvokeCoreAsyncCore(String methodName, Type returnType, Object[] args, CancellationToken cancellationToken)
   at Microsoft.AspNetCore.SignalR.Client.HubConnection.InvokeCoreAsync(String methodName, Type returnType, Object[] args, CancellationToken cancellationToken)
   at Basket.API.Services.BasketAPIService.Checkout(String customerId, RegistrationViewModel input) in C:\Users\marce\Documents\GitHub\aspnetcore-microservices\01_NTier\Services\Basket.API\Services\BasketAPIService.cs:line 180
   at Services.BasketService.Checkout(String customerId, RegistrationViewModel viewModel) in C:\Users\marce\Documents\GitHub\aspnetcore-microservices\01_NTier\Web Apps\MVC\Services\BasketService.cs:line 47
   at Controllers.BasketController.Checkout(Registration registration) in C:\Users\marce\Documents\GitHub\aspnetcore-microservices\01_NTier\Web Apps\MVC\Controllers\BasketController.cs:line 142
2019-03-18 00:23:09.018 -03:00 [ERR] The 'InvokeCoreAsync' method cannot be called if the connection is not active
System.InvalidOperationException: The 'InvokeCoreAsync' method cannot be called if the connection is not active
   at Microsoft.AspNetCore.SignalR.Client.HubConnection.CheckConnectionActive(String methodName)
   at Microsoft.AspNetCore.SignalR.Client.HubConnection.InvokeCoreAsyncCore(String methodName, Type returnType, Object[] args, CancellationToken cancellationToken)
   at Microsoft.AspNetCore.SignalR.Client.HubConnection.InvokeCoreAsync(String methodName, Type returnType, Object[] args, CancellationToken cancellationToken)
   at Basket.API.Services.BasketAPIService.Checkout(String customerId, RegistrationViewModel input) in C:\Users\marce\Documents\GitHub\aspnetcore-microservices\01_NTier\Services\Basket.API\Services\BasketAPIService.cs:line 180
   at Services.BasketService.Checkout(String customerId, RegistrationViewModel viewModel) in C:\Users\marce\Documents\GitHub\aspnetcore-microservices\01_NTier\Web Apps\MVC\Services\BasketService.cs:line 47
   at Controllers.BasketController.Checkout(Registration registration) in C:\Users\marce\Documents\GitHub\aspnetcore-microservices\01_NTier\Web Apps\MVC\Controllers\BasketController.cs:line 142
2019-03-18 00:23:09.641 -03:00 [ERR] An unhandled exception has occurred while executing the request.
System.NullReferenceException: Object reference not set to an instance of an object.
   at AspNetCore.Views_Basket_Checkout.ExecuteAsync() in C:\Users\marce\Documents\GitHub\aspnetcore-microservices\01_NTier\Web Apps\MVC\Views\Basket\Checkout.cshtml:line 12
   at Microsoft.AspNetCore.Mvc.Razor.RazorView.RenderPageCoreAsync(IRazorPage page, ViewContext context)
   at Microsoft.AspNetCore.Mvc.Razor.RazorView.RenderPageAsync(IRazorPage page, ViewContext context, Boolean invokeViewStarts)
   at Microsoft.AspNetCore.Mvc.Razor.RazorView.RenderAsync(ViewContext context)
   at Microsoft.AspNetCore.Mvc.ViewFeatures.ViewExecutor.ExecuteAsync(ViewContext viewContext, String contentType, Nullable`1 statusCode)
   at Microsoft.AspNetCore.Mvc.ViewFeatures.ViewExecutor.ExecuteAsync(ActionContext actionContext, IView view, ViewDataDictionary viewData, ITempDataDictionary tempData, String contentType, Nullable`1 statusCode)
   at Microsoft.AspNetCore.Mvc.ViewFeatures.ViewResultExecutor.ExecuteAsync(ActionContext context, ViewResult result)
   at Microsoft.AspNetCore.Mvc.ViewResult.ExecuteResultAsync(ActionContext context)
   at Microsoft.AspNetCore.Mvc.Internal.ResourceInvoker.InvokeResultAsync(IActionResult result)
   at Microsoft.AspNetCore.Mvc.Internal.ResourceInvoker.InvokeNextResultFilterAsync[TFilter,TFilterAsync]()
   at Microsoft.AspNetCore.Mvc.Internal.ResourceInvoker.Rethrow(ResultExecutedContext context)
   at Microsoft.AspNetCore.Mvc.Internal.ResourceInvoker.ResultNext[TFilter,TFilterAsync](State& next, Scope& scope, Object& state, Boolean& isCompleted)
   at Microsoft.AspNetCore.Mvc.Internal.ResourceInvoker.InvokeResultFilters()
   at Microsoft.AspNetCore.Mvc.Internal.ResourceInvoker.InvokeNextResourceFilter()
   at Microsoft.AspNetCore.Mvc.Internal.ResourceInvoker.Rethrow(ResourceExecutedContext context)
   at Microsoft.AspNetCore.Mvc.Internal.ResourceInvoker.Next(State& next, Scope& scope, Object& state, Boolean& isCompleted)
   at Microsoft.AspNetCore.Mvc.Internal.ResourceInvoker.InvokeFilterPipelineAsync()
   at Microsoft.AspNetCore.Mvc.Internal.ResourceInvoker.InvokeAsync()
   at Microsoft.AspNetCore.Builder.RouterMiddleware.Invoke(HttpContext httpContext)
   at Microsoft.AspNetCore.Session.SessionMiddleware.Invoke(HttpContext context)
   at Microsoft.AspNetCore.Session.SessionMiddleware.Invoke(HttpContext context)
   at Microsoft.AspNetCore.StaticFiles.StaticFileMiddleware.Invoke(HttpContext context)
   at Microsoft.AspNetCore.Authentication.AuthenticationMiddleware.Invoke(HttpContext context)
   at Microsoft.AspNetCore.Diagnostics.DeveloperExceptionPageMiddleware.Invoke(HttpContext context)
2019-03-18 00:23:09.651 -03:00 [ERR] An unhandled exception has occurred while executing the request.
System.NullReferenceException: Object reference not set to an instance of an object.
   at AspNetCore.Views_Basket_Checkout.ExecuteAsync() in C:\Users\marce\Documents\GitHub\aspnetcore-microservices\01_NTier\Web Apps\MVC\Views\Basket\Checkout.cshtml:line 12
   at Microsoft.AspNetCore.Mvc.Razor.RazorView.RenderPageCoreAsync(IRazorPage page, ViewContext context)
   at Microsoft.AspNetCore.Mvc.Razor.RazorView.RenderPageAsync(IRazorPage page, ViewContext context, Boolean invokeViewStarts)
   at Microsoft.AspNetCore.Mvc.Razor.RazorView.RenderAsync(ViewContext context)
   at Microsoft.AspNetCore.Mvc.ViewFeatures.ViewExecutor.ExecuteAsync(ViewContext viewContext, String contentType, Nullable`1 statusCode)
   at Microsoft.AspNetCore.Mvc.ViewFeatures.ViewExecutor.ExecuteAsync(ActionContext actionContext, IView view, ViewDataDictionary viewData, ITempDataDictionary tempData, String contentType, Nullable`1 statusCode)
   at Microsoft.AspNetCore.Mvc.ViewFeatures.ViewResultExecutor.ExecuteAsync(ActionContext context, ViewResult result)
   at Microsoft.AspNetCore.Mvc.ViewResult.ExecuteResultAsync(ActionContext context)
   at Microsoft.AspNetCore.Mvc.Internal.ResourceInvoker.InvokeResultAsync(IActionResult result)
   at Microsoft.AspNetCore.Mvc.Internal.ResourceInvoker.InvokeNextResultFilterAsync[TFilter,TFilterAsync]()
   at Microsoft.AspNetCore.Mvc.Internal.ResourceInvoker.Rethrow(ResultExecutedContext context)
   at Microsoft.AspNetCore.Mvc.Internal.ResourceInvoker.ResultNext[TFilter,TFilterAsync](State& next, Scope& scope, Object& state, Boolean& isCompleted)
   at Microsoft.AspNetCore.Mvc.Internal.ResourceInvoker.InvokeResultFilters()
   at Microsoft.AspNetCore.Mvc.Internal.ResourceInvoker.InvokeNextResourceFilter()
   at Microsoft.AspNetCore.Mvc.Internal.ResourceInvoker.Rethrow(ResourceExecutedContext context)
   at Microsoft.AspNetCore.Mvc.Internal.ResourceInvoker.Next(State& next, Scope& scope, Object& state, Boolean& isCompleted)
   at Microsoft.AspNetCore.Mvc.Internal.ResourceInvoker.InvokeFilterPipelineAsync()
   at Microsoft.AspNetCore.Mvc.Internal.ResourceInvoker.InvokeAsync()
   at Microsoft.AspNetCore.Builder.RouterMiddleware.Invoke(HttpContext httpContext)
   at Microsoft.AspNetCore.Session.SessionMiddleware.Invoke(HttpContext context)
   at Microsoft.AspNetCore.Session.SessionMiddleware.Invoke(HttpContext context)
   at Microsoft.AspNetCore.StaticFiles.StaticFileMiddleware.Invoke(HttpContext context)
   at Microsoft.AspNetCore.Authentication.AuthenticationMiddleware.Invoke(HttpContext context)
   at Microsoft.AspNetCore.Diagnostics.DeveloperExceptionPageMiddleware.Invoke(HttpContext context)
2019-03-18 00:23:14.009 -03:00 [ERR] Exception of type 'Ordering.Repositories.NoItemsException' was thrown.
Ordering.Repositories.NoItemsException: Exception of type 'Ordering.Repositories.NoItemsException' was thrown.
   at Ordering.Repositories.OrderRepository.CreateOrUpdate(Order order) in C:\Users\marce\Documents\GitHub\aspnetcore-microservices\01_NTier\Services\Ordering.API\Repositories\OrderRepository.cs:line 28
   at Ordering.Services.OrderingServices.CreateOrUpdateAsync(Order order) in C:\Users\marce\Documents\GitHub\aspnetcore-microservices\01_NTier\Services\Ordering.API\Services\OrderingServices.cs:line 29
   at Basket.API.Services.BasketAPIService.Checkout(String customerId, RegistrationViewModel input) in C:\Users\marce\Documents\GitHub\aspnetcore-microservices\01_NTier\Services\Basket.API\Services\BasketAPIService.cs:line 164
   at Services.BasketService.Checkout(String customerId, RegistrationViewModel viewModel) in C:\Users\marce\Documents\GitHub\aspnetcore-microservices\01_NTier\Web Apps\MVC\Services\BasketService.cs:line 47
   at Controllers.BasketController.Checkout(Registration registration) in C:\Users\marce\Documents\GitHub\aspnetcore-microservices\01_NTier\Web Apps\MVC\Controllers\BasketController.cs:line 142
2019-03-18 00:23:14.010 -03:00 [ERR] Exception of type 'Ordering.Repositories.NoItemsException' was thrown.
Ordering.Repositories.NoItemsException: Exception of type 'Ordering.Repositories.NoItemsException' was thrown.
   at Ordering.Repositories.OrderRepository.CreateOrUpdate(Order order) in C:\Users\marce\Documents\GitHub\aspnetcore-microservices\01_NTier\Services\Ordering.API\Repositories\OrderRepository.cs:line 28
   at Ordering.Services.OrderingServices.CreateOrUpdateAsync(Order order) in C:\Users\marce\Documents\GitHub\aspnetcore-microservices\01_NTier\Services\Ordering.API\Services\OrderingServices.cs:line 29
   at Basket.API.Services.BasketAPIService.Checkout(String customerId, RegistrationViewModel input) in C:\Users\marce\Documents\GitHub\aspnetcore-microservices\01_NTier\Services\Basket.API\Services\BasketAPIService.cs:line 164
   at Services.BasketService.Checkout(String customerId, RegistrationViewModel viewModel) in C:\Users\marce\Documents\GitHub\aspnetcore-microservices\01_NTier\Web Apps\MVC\Services\BasketService.cs:line 47
   at Controllers.BasketController.Checkout(Registration registration) in C:\Users\marce\Documents\GitHub\aspnetcore-microservices\01_NTier\Web Apps\MVC\Controllers\BasketController.cs:line 142
2019-03-18 00:23:14.490 -03:00 [ERR] An unhandled exception has occurred while executing the request.
System.NullReferenceException: Object reference not set to an instance of an object.
   at AspNetCore.Views_Basket_Checkout.ExecuteAsync() in C:\Users\marce\Documents\GitHub\aspnetcore-microservices\01_NTier\Web Apps\MVC\Views\Basket\Checkout.cshtml:line 12
   at Microsoft.AspNetCore.Mvc.Razor.RazorView.RenderPageCoreAsync(IRazorPage page, ViewContext context)
   at Microsoft.AspNetCore.Mvc.Razor.RazorView.RenderPageAsync(IRazorPage page, ViewContext context, Boolean invokeViewStarts)
   at Microsoft.AspNetCore.Mvc.Razor.RazorView.RenderAsync(ViewContext context)
   at Microsoft.AspNetCore.Mvc.ViewFeatures.ViewExecutor.ExecuteAsync(ViewContext viewContext, String contentType, Nullable`1 statusCode)
   at Microsoft.AspNetCore.Mvc.ViewFeatures.ViewExecutor.ExecuteAsync(ActionContext actionContext, IView view, ViewDataDictionary viewData, ITempDataDictionary tempData, String contentType, Nullable`1 statusCode)
   at Microsoft.AspNetCore.Mvc.ViewFeatures.ViewResultExecutor.ExecuteAsync(ActionContext context, ViewResult result)
   at Microsoft.AspNetCore.Mvc.ViewResult.ExecuteResultAsync(ActionContext context)
   at Microsoft.AspNetCore.Mvc.Internal.ResourceInvoker.InvokeResultAsync(IActionResult result)
   at Microsoft.AspNetCore.Mvc.Internal.ResourceInvoker.InvokeNextResultFilterAsync[TFilter,TFilterAsync]()
   at Microsoft.AspNetCore.Mvc.Internal.ResourceInvoker.Rethrow(ResultExecutedContext context)
   at Microsoft.AspNetCore.Mvc.Internal.ResourceInvoker.ResultNext[TFilter,TFilterAsync](State& next, Scope& scope, Object& state, Boolean& isCompleted)
   at Microsoft.AspNetCore.Mvc.Internal.ResourceInvoker.InvokeResultFilters()
   at Microsoft.AspNetCore.Mvc.Internal.ResourceInvoker.InvokeNextResourceFilter()
   at Microsoft.AspNetCore.Mvc.Internal.ResourceInvoker.Rethrow(ResourceExecutedContext context)
   at Microsoft.AspNetCore.Mvc.Internal.ResourceInvoker.Next(State& next, Scope& scope, Object& state, Boolean& isCompleted)
   at Microsoft.AspNetCore.Mvc.Internal.ResourceInvoker.InvokeFilterPipelineAsync()
   at Microsoft.AspNetCore.Mvc.Internal.ResourceInvoker.InvokeAsync()
   at Microsoft.AspNetCore.Builder.RouterMiddleware.Invoke(HttpContext httpContext)
   at Microsoft.AspNetCore.Session.SessionMiddleware.Invoke(HttpContext context)
   at Microsoft.AspNetCore.Session.SessionMiddleware.Invoke(HttpContext context)
   at Microsoft.AspNetCore.StaticFiles.StaticFileMiddleware.Invoke(HttpContext context)
   at Microsoft.AspNetCore.Authentication.AuthenticationMiddleware.Invoke(HttpContext context)
   at Microsoft.AspNetCore.Diagnostics.DeveloperExceptionPageMiddleware.Invoke(HttpContext context)
2019-03-18 00:23:14.493 -03:00 [ERR] An unhandled exception has occurred while executing the request.
System.NullReferenceException: Object reference not set to an instance of an object.
   at AspNetCore.Views_Basket_Checkout.ExecuteAsync() in C:\Users\marce\Documents\GitHub\aspnetcore-microservices\01_NTier\Web Apps\MVC\Views\Basket\Checkout.cshtml:line 12
   at Microsoft.AspNetCore.Mvc.Razor.RazorView.RenderPageCoreAsync(IRazorPage page, ViewContext context)
   at Microsoft.AspNetCore.Mvc.Razor.RazorView.RenderPageAsync(IRazorPage page, ViewContext context, Boolean invokeViewStarts)
   at Microsoft.AspNetCore.Mvc.Razor.RazorView.RenderAsync(ViewContext context)
   at Microsoft.AspNetCore.Mvc.ViewFeatures.ViewExecutor.ExecuteAsync(ViewContext viewContext, String contentType, Nullable`1 statusCode)
   at Microsoft.AspNetCore.Mvc.ViewFeatures.ViewExecutor.ExecuteAsync(ActionContext actionContext, IView view, ViewDataDictionary viewData, ITempDataDictionary tempData, String contentType, Nullable`1 statusCode)
   at Microsoft.AspNetCore.Mvc.ViewFeatures.ViewResultExecutor.ExecuteAsync(ActionContext context, ViewResult result)
   at Microsoft.AspNetCore.Mvc.ViewResult.ExecuteResultAsync(ActionContext context)
   at Microsoft.AspNetCore.Mvc.Internal.ResourceInvoker.InvokeResultAsync(IActionResult result)
   at Microsoft.AspNetCore.Mvc.Internal.ResourceInvoker.InvokeNextResultFilterAsync[TFilter,TFilterAsync]()
   at Microsoft.AspNetCore.Mvc.Internal.ResourceInvoker.Rethrow(ResultExecutedContext context)
   at Microsoft.AspNetCore.Mvc.Internal.ResourceInvoker.ResultNext[TFilter,TFilterAsync](State& next, Scope& scope, Object& state, Boolean& isCompleted)
   at Microsoft.AspNetCore.Mvc.Internal.ResourceInvoker.InvokeResultFilters()
   at Microsoft.AspNetCore.Mvc.Internal.ResourceInvoker.InvokeNextResourceFilter()
   at Microsoft.AspNetCore.Mvc.Internal.ResourceInvoker.Rethrow(ResourceExecutedContext context)
   at Microsoft.AspNetCore.Mvc.Internal.ResourceInvoker.Next(State& next, Scope& scope, Object& state, Boolean& isCompleted)
   at Microsoft.AspNetCore.Mvc.Internal.ResourceInvoker.InvokeFilterPipelineAsync()
   at Microsoft.AspNetCore.Mvc.Internal.ResourceInvoker.InvokeAsync()
   at Microsoft.AspNetCore.Builder.RouterMiddleware.Invoke(HttpContext httpContext)
   at Microsoft.AspNetCore.Session.SessionMiddleware.Invoke(HttpContext context)
   at Microsoft.AspNetCore.Session.SessionMiddleware.Invoke(HttpContext context)
   at Microsoft.AspNetCore.StaticFiles.StaticFileMiddleware.Invoke(HttpContext context)
   at Microsoft.AspNetCore.Authentication.AuthenticationMiddleware.Invoke(HttpContext context)
   at Microsoft.AspNetCore.Diagnostics.DeveloperExceptionPageMiddleware.Invoke(HttpContext context)
2019-03-18 00:24:12.311 -03:00 [INF] Registry event has been dispatched: {"UserId":"98f50698-8c84-4224-be48-0052862be631","Name":"Alice Smith","Email":"alice@asp.net","Phone":"1234-5678","Address":"Rua Vergueiro, 456","AdditionalAddress":"8 andar sala 801","District":"Vila Mariana","City":"São Paulo","State":"SP","ZipCode":"69118","Id":"6d0b66de-ea90-4de2-a86a-2e72528b7954","CreationDate":"2019-03-18T03:24:12.2657389Z"}
2019-03-18 00:24:12.313 -03:00 [INF] Registry event has been dispatched: {"UserId":"98f50698-8c84-4224-be48-0052862be631","Name":"Alice Smith","Email":"alice@asp.net","Phone":"1234-5678","Address":"Rua Vergueiro, 456","AdditionalAddress":"8 andar sala 801","District":"Vila Mariana","City":"São Paulo","State":"SP","ZipCode":"69118","Id":"6d0b66de-ea90-4de2-a86a-2e72528b7954","CreationDate":"2019-03-18T03:24:12.2657389Z"}
2019-03-18 00:27:06.455 -03:00 [INF] Registry event has been dispatched: {"UserId":"98f50698-8c84-4224-be48-0052862be631","Name":"Alice Smith","Email":"alice@asp.net","Phone":"1234-5678","Address":"Rua Vergueiro, 456","AdditionalAddress":"8 andar sala 801","District":"Vila Mariana","City":"São Paulo","State":"SP","ZipCode":"69118","Id":"94967fb6-a44b-4679-bf60-03b44a4ab86a","CreationDate":"2019-03-18T03:27:06.2539762Z"}
2019-03-18 00:27:06.494 -03:00 [INF] Registry event has been dispatched: {"UserId":"98f50698-8c84-4224-be48-0052862be631","Name":"Alice Smith","Email":"alice@asp.net","Phone":"1234-5678","Address":"Rua Vergueiro, 456","AdditionalAddress":"8 andar sala 801","District":"Vila Mariana","City":"São Paulo","State":"SP","ZipCode":"69118","Id":"94967fb6-a44b-4679-bf60-03b44a4ab86a","CreationDate":"2019-03-18T03:27:06.2539762Z"}
2019-03-18 00:31:09.581 -03:00 [INF] Registry event has been dispatched: {"UserId":"98f50698-8c84-4224-be48-0052862be631","Name":"Alice Smith","Email":"alice@asp.net","Phone":"1234-5678","Address":"Rua Vergueiro, 456","AdditionalAddress":"8 andar sala 801","District":"Vila Mariana","City":"São Paulo","State":"SP","ZipCode":"69118","Id":"63530da9-c31f-45cc-8dcf-57d0372de09c","CreationDate":"2019-03-18T03:31:09.5617176Z"}
2019-03-18 00:31:09.581 -03:00 [INF] Registry event has been dispatched: {"UserId":"98f50698-8c84-4224-be48-0052862be631","Name":"Alice Smith","Email":"alice@asp.net","Phone":"1234-5678","Address":"Rua Vergueiro, 456","AdditionalAddress":"8 andar sala 801","District":"Vila Mariana","City":"São Paulo","State":"SP","ZipCode":"69118","Id":"63530da9-c31f-45cc-8dcf-57d0372de09c","CreationDate":"2019-03-18T03:31:09.5617176Z"}
2019-03-18 00:31:22.633 -03:00 [INF] Registry event has been dispatched: {"UserId":"98f50698-8c84-4224-be48-0052862be631","Name":"Alice Smith","Email":"alice@asp.net","Phone":"1234-5678","Address":"Rua Vergueiro, 456","AdditionalAddress":"8 andar sala 801","District":"Vila Mariana","City":"São Paulo","State":"SP","ZipCode":"69118","Id":"e7081586-4f2c-4671-9599-cf6373cb6925","CreationDate":"2019-03-18T03:31:22.6077324Z"}
2019-03-18 00:31:22.634 -03:00 [INF] Registry event has been dispatched: {"UserId":"98f50698-8c84-4224-be48-0052862be631","Name":"Alice Smith","Email":"alice@asp.net","Phone":"1234-5678","Address":"Rua Vergueiro, 456","AdditionalAddress":"8 andar sala 801","District":"Vila Mariana","City":"São Paulo","State":"SP","ZipCode":"69118","Id":"e7081586-4f2c-4671-9599-cf6373cb6925","CreationDate":"2019-03-18T03:31:22.6077324Z"}
2019-03-18 00:52:39.589 -03:00 [INF] New order has been placed successfully: {"Items":[{"ProductCode":"001","ProductName":"Oranges","Quantity":1,"UnitPrice":52.9,"Id":6},{"ProductCode":"015","ProductName":"Aspargus","Quantity":1,"UnitPrice":52.9,"Id":7},{"ProductCode":"020","ProductName":"Peas","Quantity":1,"UnitPrice":52.9,"Id":8}],"Registration":{"Id":0},"CustomerId":"98f50698-8c84-4224-be48-0052862be631","CustomerName":"Alice Smith","CustomerEmail":"alice@asp.net","CustomerPhone":"1234-5678","CustomerAddress":"Rua Vergueiro, 456","CustomerAdditionalAddress":"8 andar sala 801","CustomerDistrict":"Vila Mariana","CustomerCity":"São Paulo","CustomerState":"SP","CustomerZipCode":"69118","DateCreated":"2019-03-18T00:52:38.4905967-03:00","Id":4}
2019-03-18 00:52:39.623 -03:00 [INF] New order has been placed successfully: {"Items":[{"ProductCode":"001","ProductName":"Oranges","Quantity":1,"UnitPrice":52.9,"Id":6},{"ProductCode":"015","ProductName":"Aspargus","Quantity":1,"UnitPrice":52.9,"Id":7},{"ProductCode":"020","ProductName":"Peas","Quantity":1,"UnitPrice":52.9,"Id":8}],"Registration":{"Id":0},"CustomerId":"98f50698-8c84-4224-be48-0052862be631","CustomerName":"Alice Smith","CustomerEmail":"alice@asp.net","CustomerPhone":"1234-5678","CustomerAddress":"Rua Vergueiro, 456","CustomerAdditionalAddress":"8 andar sala 801","CustomerDistrict":"Vila Mariana","CustomerCity":"São Paulo","CustomerState":"SP","CustomerZipCode":"69118","DateCreated":"2019-03-18T00:52:38.4905967-03:00","Id":4}
2019-03-18 00:52:46.151 -03:00 [INF] Registry event has been dispatched: {"UserId":"98f50698-8c84-4224-be48-0052862be631","Name":"Alice Smith","Email":"alice@asp.net","Phone":"1234-5678","Address":"Rua Vergueiro, 456","AdditionalAddress":"8 andar sala 801","District":"Vila Mariana","City":"São Paulo","State":"SP","ZipCode":"69118","Id":"1d40de10-92ff-48f0-83c3-ba0e45bb65b2","CreationDate":"2019-03-18T03:52:45.9189821Z"}
2019-03-18 00:52:46.151 -03:00 [INF] Registry event has been dispatched: {"UserId":"98f50698-8c84-4224-be48-0052862be631","Name":"Alice Smith","Email":"alice@asp.net","Phone":"1234-5678","Address":"Rua Vergueiro, 456","AdditionalAddress":"8 andar sala 801","District":"Vila Mariana","City":"São Paulo","State":"SP","ZipCode":"69118","Id":"1d40de10-92ff-48f0-83c3-ba0e45bb65b2","CreationDate":"2019-03-18T03:52:45.9189821Z"}
2019-03-18 00:53:00.032 -03:00 [INF] New order has been placed successfully: {"Items":[{"ProductCode":"001","ProductName":"Oranges","Quantity":1,"UnitPrice":52.9,"Id":9},{"ProductCode":"002","ProductName":"Lemons","Quantity":1,"UnitPrice":52.9,"Id":10}],"Registration":{"Id":0},"CustomerId":"98f50698-8c84-4224-be48-0052862be631","CustomerName":"Alice Smith","CustomerEmail":"alice@asp.net","CustomerPhone":"1234-5678","CustomerAddress":"Rua Vergueiro, 456","CustomerAdditionalAddress":"8 andar sala 801","CustomerDistrict":"Vila Mariana","CustomerCity":"São Paulo","CustomerState":"SP","CustomerZipCode":"69118","DateCreated":"2019-03-18T00:52:59.7788161-03:00","Id":5}
2019-03-18 00:53:00.032 -03:00 [INF] New order has been placed successfully: {"Items":[{"ProductCode":"001","ProductName":"Oranges","Quantity":1,"UnitPrice":52.9,"Id":9},{"ProductCode":"002","ProductName":"Lemons","Quantity":1,"UnitPrice":52.9,"Id":10}],"Registration":{"Id":0},"CustomerId":"98f50698-8c84-4224-be48-0052862be631","CustomerName":"Alice Smith","CustomerEmail":"alice@asp.net","CustomerPhone":"1234-5678","CustomerAddress":"Rua Vergueiro, 456","CustomerAdditionalAddress":"8 andar sala 801","CustomerDistrict":"Vila Mariana","CustomerCity":"São Paulo","CustomerState":"SP","CustomerZipCode":"69118","DateCreated":"2019-03-18T00:52:59.7788161-03:00","Id":5}
2019-03-18 00:53:01.111 -03:00 [INF] Registry event has been dispatched: {"UserId":"98f50698-8c84-4224-be48-0052862be631","Name":"Alice Smith","Email":"alice@asp.net","Phone":"1234-5678","Address":"Rua Vergueiro, 456","AdditionalAddress":"8 andar sala 801","District":"Vila Mariana","City":"São Paulo","State":"SP","ZipCode":"69118","Id":"ca0e8a04-598c-4c16-bb8c-32fe7757521c","CreationDate":"2019-03-18T03:53:01.0715502Z"}
2019-03-18 00:53:01.111 -03:00 [INF] Registry event has been dispatched: {"UserId":"98f50698-8c84-4224-be48-0052862be631","Name":"Alice Smith","Email":"alice@asp.net","Phone":"1234-5678","Address":"Rua Vergueiro, 456","AdditionalAddress":"8 andar sala 801","District":"Vila Mariana","City":"São Paulo","State":"SP","ZipCode":"69118","Id":"ca0e8a04-598c-4c16-bb8c-32fe7757521c","CreationDate":"2019-03-18T03:53:01.0715502Z"}
2019-03-18 00:53:13.494 -03:00 [INF] New order has been placed successfully: {"Items":[{"ProductCode":"011","ProductName":"Lettuce","Quantity":1,"UnitPrice":52.9,"Id":11}],"Registration":{"Id":0},"CustomerId":"98f50698-8c84-4224-be48-0052862be631","CustomerName":"Alice Smith","CustomerEmail":"alice@asp.net","CustomerPhone":"1234-5678","CustomerAddress":"Rua Vergueiro, 456","CustomerAdditionalAddress":"8 andar sala 801","CustomerDistrict":"Vila Mariana","CustomerCity":"São Paulo","CustomerState":"SP","CustomerZipCode":"69118","DateCreated":"2019-03-18T00:53:13.2934115-03:00","Id":6}
2019-03-18 00:53:13.496 -03:00 [INF] New order has been placed successfully: {"Items":[{"ProductCode":"011","ProductName":"Lettuce","Quantity":1,"UnitPrice":52.9,"Id":11}],"Registration":{"Id":0},"CustomerId":"98f50698-8c84-4224-be48-0052862be631","CustomerName":"Alice Smith","CustomerEmail":"alice@asp.net","CustomerPhone":"1234-5678","CustomerAddress":"Rua Vergueiro, 456","CustomerAdditionalAddress":"8 andar sala 801","CustomerDistrict":"Vila Mariana","CustomerCity":"São Paulo","CustomerState":"SP","CustomerZipCode":"69118","DateCreated":"2019-03-18T00:53:13.2934115-03:00","Id":6}
2019-03-18 00:53:14.554 -03:00 [INF] Registry event has been dispatched: {"UserId":"98f50698-8c84-4224-be48-0052862be631","Name":"Alice Smith","Email":"alice@asp.net","Phone":"1234-5678","Address":"Rua Vergueiro, 456","AdditionalAddress":"8 andar sala 801","District":"Vila Mariana","City":"São Paulo","State":"SP","ZipCode":"69118","Id":"37627c3e-8eef-4d01-8a16-ee2185de3237","CreationDate":"2019-03-18T03:53:14.5185769Z"}
2019-03-18 00:53:14.554 -03:00 [INF] Registry event has been dispatched: {"UserId":"98f50698-8c84-4224-be48-0052862be631","Name":"Alice Smith","Email":"alice@asp.net","Phone":"1234-5678","Address":"Rua Vergueiro, 456","AdditionalAddress":"8 andar sala 801","District":"Vila Mariana","City":"São Paulo","State":"SP","ZipCode":"69118","Id":"37627c3e-8eef-4d01-8a16-ee2185de3237","CreationDate":"2019-03-18T03:53:14.5185769Z"}
2019-03-18 01:01:03.613 -03:00 [INF] New order has been placed successfully: {"Items":[{"ProductCode":"006","ProductName":"Carrots","Quantity":1,"UnitPrice":52.9,"Id":1006},{"ProductCode":"015","ProductName":"Aspargus","Quantity":1,"UnitPrice":52.9,"Id":1007},{"ProductCode":"001","ProductName":"Oranges","Quantity":1,"UnitPrice":52.9,"Id":1008},{"ProductCode":"016","ProductName":"Rice","Quantity":1,"UnitPrice":52.9,"Id":1009}],"Registration":{"Id":0},"CustomerId":"98f50698-8c84-4224-be48-0052862be631","CustomerName":"Alice Smith","CustomerEmail":"alice@asp.net","CustomerPhone":"1234-5678","CustomerAddress":"Rua Vergueiro, 456","CustomerAdditionalAddress":"8 andar sala 801","CustomerDistrict":"Vila Mariana","CustomerCity":"São Paulo","CustomerState":"SP","CustomerZipCode":"69118","DateCreated":"2019-03-18T01:01:02.6782914-03:00","Id":1004}
2019-03-18 01:01:03.652 -03:00 [INF] New order has been placed successfully: {"Items":[{"ProductCode":"006","ProductName":"Carrots","Quantity":1,"UnitPrice":52.9,"Id":1006},{"ProductCode":"015","ProductName":"Aspargus","Quantity":1,"UnitPrice":52.9,"Id":1007},{"ProductCode":"001","ProductName":"Oranges","Quantity":1,"UnitPrice":52.9,"Id":1008},{"ProductCode":"016","ProductName":"Rice","Quantity":1,"UnitPrice":52.9,"Id":1009}],"Registration":{"Id":0},"CustomerId":"98f50698-8c84-4224-be48-0052862be631","CustomerName":"Alice Smith","CustomerEmail":"alice@asp.net","CustomerPhone":"1234-5678","CustomerAddress":"Rua Vergueiro, 456","CustomerAdditionalAddress":"8 andar sala 801","CustomerDistrict":"Vila Mariana","CustomerCity":"São Paulo","CustomerState":"SP","CustomerZipCode":"69118","DateCreated":"2019-03-18T01:01:02.6782914-03:00","Id":1004}
2019-03-18 01:01:04.862 -03:00 [INF] Registry event has been dispatched: {"UserId":"98f50698-8c84-4224-be48-0052862be631","Name":"Alice Smith","Email":"alice@asp.net","Phone":"1234-5678","Address":"Rua Vergueiro, 456","AdditionalAddress":"8 andar sala 801","District":"Vila Mariana","City":"São Paulo","State":"SP","ZipCode":"69118","Id":"faa3f0a8-ed54-4829-8e5a-db07c3adccfb","CreationDate":"2019-03-18T04:01:04.6831838Z"}
2019-03-18 01:01:04.862 -03:00 [INF] Registry event has been dispatched: {"UserId":"98f50698-8c84-4224-be48-0052862be631","Name":"Alice Smith","Email":"alice@asp.net","Phone":"1234-5678","Address":"Rua Vergueiro, 456","AdditionalAddress":"8 andar sala 801","District":"Vila Mariana","City":"São Paulo","State":"SP","ZipCode":"69118","Id":"faa3f0a8-ed54-4829-8e5a-db07c3adccfb","CreationDate":"2019-03-18T04:01:04.6831838Z"}
2019-03-18 01:01:19.899 -03:00 [INF] New order has been placed successfully: {"Items":[{"ProductCode":"013","ProductName":"Cauliflower","Quantity":1,"UnitPrice":52.9,"Id":1010},{"ProductCode":"014","ProductName":"Onion","Quantity":1,"UnitPrice":52.9,"Id":1011}],"Registration":{"Id":0},"CustomerId":"98f50698-8c84-4224-be48-0052862be631","CustomerName":"Alice Smith","CustomerEmail":"alice@asp.net","CustomerPhone":"1234-5678","CustomerAddress":"Rua Vergueiro, 456","CustomerAdditionalAddress":"8 andar sala 801","CustomerDistrict":"Vila Mariana","CustomerCity":"São Paulo","CustomerState":"SP","CustomerZipCode":"69118","DateCreated":"2019-03-18T01:01:19.7815132-03:00","Id":1005}
2019-03-18 01:01:19.900 -03:00 [INF] New order has been placed successfully: {"Items":[{"ProductCode":"013","ProductName":"Cauliflower","Quantity":1,"UnitPrice":52.9,"Id":1010},{"ProductCode":"014","ProductName":"Onion","Quantity":1,"UnitPrice":52.9,"Id":1011}],"Registration":{"Id":0},"CustomerId":"98f50698-8c84-4224-be48-0052862be631","CustomerName":"Alice Smith","CustomerEmail":"alice@asp.net","CustomerPhone":"1234-5678","CustomerAddress":"Rua Vergueiro, 456","CustomerAdditionalAddress":"8 andar sala 801","CustomerDistrict":"Vila Mariana","CustomerCity":"São Paulo","CustomerState":"SP","CustomerZipCode":"69118","DateCreated":"2019-03-18T01:01:19.7815132-03:00","Id":1005}
2019-03-18 01:01:20.946 -03:00 [INF] Registry event has been dispatched: {"UserId":"98f50698-8c84-4224-be48-0052862be631","Name":"Alice Smith","Email":"alice@asp.net","Phone":"1234-5678","Address":"Rua Vergueiro, 456","AdditionalAddress":"8 andar sala 801","District":"Vila Mariana","City":"São Paulo","State":"SP","ZipCode":"69118","Id":"8a66c348-1e91-4aec-b7d5-08304c009ef2","CreationDate":"2019-03-18T04:01:20.9162713Z"}
2019-03-18 01:01:20.947 -03:00 [INF] Registry event has been dispatched: {"UserId":"98f50698-8c84-4224-be48-0052862be631","Name":"Alice Smith","Email":"alice@asp.net","Phone":"1234-5678","Address":"Rua Vergueiro, 456","AdditionalAddress":"8 andar sala 801","District":"Vila Mariana","City":"São Paulo","State":"SP","ZipCode":"69118","Id":"8a66c348-1e91-4aec-b7d5-08304c009ef2","CreationDate":"2019-03-18T04:01:20.9162713Z"}
